     2.10           NAVIGATION DATA                         RINEX VERSION / TYPE
SPIDER V4,0,0,3554                      2015 03 13 03:25    PGM / RUN BY / DATE 
   1.6764D-08  0.0000D+00 -1.1921D-07  5.9605D-08           ION ALPHA           
   1.2288D+05 -3.2768D+04 -1.9661D+05 -6.5536D+04           ION BETA            
   -2.793967723846D-09-1.421085471520D-14   319488     1833 DELTA-UTC: A0,A1,T,W
    16                                                      LEAP SECONDS        
                                                            END OF HEADER       
13 15 02 23 14 00  0.0-9.086914360523D-05-3.410605131648D-12 0.000000000000D+00
    9.600000000000D+01 8.375000000000D+01 4.457685776060D-09-6.080939492567D-01
    4.468485713005D-06 5.353211075999D-03 6.675720214844D-06 5.153687932968D+03
    1.368000000000D+05-1.303851604462D-08 1.900899898557D+00-6.146728992462D-08
    9.745980564010D-01 2.561875000000D+02 2.063824780758D+00-8.266415996161D-09
    2.071514904056D-10 1.000000000000D+00 1.833000000000D+03 0.000000000000D+00
    2.000000000000D+00 0.000000000000D+00-1.164153218269D-08 9.600000000000D+01
    1.368000000000D+05 0.000000000000D+00
20 15 02 23 14 00  0.0 2.928241156042D-04 4.092726157978D-12 0.000000000000D+00
    7.900000000000D+01-8.125000000000D-01 5.228789401457D-09 2.518434091826D+00
   -1.210719347000D-07 5.806332919747D-03 1.170486211777D-05 5.155772678375D+03
    1.368000000000D+05 4.842877388000D-08 6.732981522677D-01-1.117587089539D-07
    9.266131745295D-01 1.332500000000D+02 1.234948428719D+00-8.187483580002D-09
   -2.782258867740D-10 1.000000000000D+00 1.833000000000D+03 0.000000000000D+00
    2.000000000000D+00 0.000000000000D+00-8.381903171539D-09 7.900000000000D+01
    1.368000000000D+05 0.000000000000D+00
28 15 02 23 14 00  0.0 4.215175285935D-04 2.614797267597D-12 0.000000000000D+00
    6.100000000000D+01-5.612500000000D+01 3.518360935928D-09 2.197696260585D+00
   -2.905726432800D-06 1.966888981406D-02 1.131184399128D-05 5.153694293976D+03
    1.368000000000D+05 3.054738044739D-07-2.329512374158D+00-1.769512891769D-07
    9.885165545166D-01 1.706562500000D+02-1.669514160206D+00-7.341377283865D-09
    2.214377986531D-11 1.000000000000D+00 1.833000000000D+03 0.000000000000D+00
    2.000000000000D+00 0.000000000000D+00-1.117587089539D-08 6.100000000000D+01
    1.368000000000D+05 0.000000000000D+00
30 15 02 23 13 59 44.0-8.347956463695D-05 1.705302565824D-12 0.000000000000D+00
    7.000000000000D+00-3.728125000000D+01 4.743054837775D-09-1.250400865198D+00
   -1.994892954826D-06 1.028971048072D-03 4.729256033897D-06 5.153767225266D+03
    1.367840000000D+05-9.685754776001D-08 2.913560754414D+00-5.587935447693D-09
    9.570462476291D-01 2.868125000000D+02 2.922752606641D+00-8.394992256910D-09
   -3.482287791456D-10 1.000000000000D+00 1.833000000000D+03 0.000000000000D+00
    2.000000000000D+00 0.000000000000D+00 3.259629011154D-09 7.000000000000D+00
    1.367840000000D+05 0.000000000000D+00
13 15 02 23 13 59 44.0-9.087193757296D-05-3.524291969370D-12 0.000000000000D+00
    1.200000000000D+01 8.375000000000D+01 4.457685776060D-09-6.104271119508D-01
    4.468485713005D-06 5.353211658075D-03 6.675720214844D-06 5.153687921524D+03
    1.367840000000D+05-1.303851604462D-08 1.900900049237D+00-6.146728992462D-08
    9.745980432347D-01 2.561875000000D+02 2.063824325790D+00-8.266415996161D-09
    2.071514904056D-10 1.000000000000D+00 1.833000000000D+03 0.000000000000D+00
    2.000000000000D+00 0.000000000000D+00-1.164153218269D-08 1.200000000000D+01
    1.367840000000D+05 0.000000000000D+00
15 15 02 23 14 00  0.0-2.339747734368D-04-2.273736754432D-12 0.000000000000D+00
    3.300000000000D+01 8.403125000000D+01 5.363794741697D-09 5.902716454690D-01
    4.593282938004D-06 7.083765463904D-03 6.809830665588D-06 5.153597106934D+03
    1.368000000000D+05 3.352761268616D-08 1.745814727048D+00 6.705522537231D-08
    9.337270174553D-01 2.290625000000D+02 3.798960381377D-01-8.632502712658D-09
    8.500353892993D-11 1.000000000000D+00 1.833000000000D+03 0.000000000000D+00
    2.000000000000D+00 0.000000000000D+00-1.071020960808D-08 3.300000000000D+01
    1.368000000000D+05 0.000000000000D+00
 5 15 02 23 13 59 44.0-2.752444706857D-04 5.002220859751D-12 0.000000000000D+00
    0.000000000000D+00-2.343750000000D+00 4.849487922343D-09 2.144831344400D+00
   -4.842877388000D-08 4.030855023302D-03 1.204572618008D-05 5.153781488419D+03
    1.367840000000D+05-1.117587089539D-07 7.371113996028D-01-1.117587089539D-08
    9.468311939254D-01 1.416875000000D+02 4.193253332804D-01-8.089980241266D-09
   -2.385813768768D-10 1.000000000000D+00 1.833000000000D+03 0.000000000000D+00
    2.000000000000D+00 0.000000000000D+00-1.071020960808D-08 0.000000000000D+00
    1.367840000000D+05 0.000000000000D+00
10 15 02 23 16 00  0.0-1.646243035793D-04-1.705302565824D-12 0.000000000000D+00
    5.000000000000D+01 1.521875000000D+01 4.833415445660D-09-2.724025933631D+00
    5.066394805908D-07 1.456372183748D-02 1.204013824463D-05 5.153671506882D+03
    1.440000000000D+05 2.384185791016D-07 7.526867606991D-01-2.533197402954D-07
    9.416100451522D-01 1.332500000000D+02 9.231207940864D-01-7.963903314590D-09
   -1.082187950363D-10 1.000000000000D+00 1.833000000000D+03 0.000000000000D+00
    2.000000000000D+00 0.000000000000D+00-3.259629011154D-09 5.000000000000D+01
    1.440000000000D+05 0.000000000000D+00
15 15 02 23 16 00  0.0-2.339910715818D-04-2.273736754432D-12 0.000000000000D+00
    5.200000000000D+01 9.471875000000D+01 5.365580424410D-09 1.640266903632D+00
    5.133450031281D-06 7.085221353918D-03 7.824972271919D-06 5.153601173401D+03
    1.440000000000D+05-2.421438694000D-08 1.745752359925D+00 1.322478055954D-07
    9.337277328223D-01 2.150937500000D+02 3.801327295054D-01-8.617144331424D-09
    1.350056177962D-10 1.000000000000D+00 1.833000000000D+03 0.000000000000D+00
    2.000000000000D+00 0.000000000000D+00-1.071020960808D-08 5.200000000000D+01
    1.440000000000D+05 0.000000000000D+00
 5 15 02 23 15 59 44.0-2.752081491053D-04 5.002220859751D-12 0.000000000000D+00
    1.000000000000D+00 6.000000000000D+00 4.833415445660D-09-3.088090282556D+00
    2.719461917877D-07 4.030798911117D-03 1.201592385769D-05 5.153781089783D+03
    1.439840000000D+05-4.842877388000D-08 7.370533831976D-01-8.381903171539D-08
    9.468298685217D-01 1.408750000000D+02 4.191799060571D-01-8.018191444137D-09
   -2.210806399061D-10 1.000000000000D+00 1.833000000000D+03 0.000000000000D+00
    2.000000000000D+00 0.000000000000D+00-1.071020960808D-08 1.000000000000D+00
    1.439840000000D+05 0.000000000000D+00
13 15 02 23 15 59 44.0-9.089708328247D-05-3.524291969370D-12 0.000000000000D+00
    1.300000000000D+01 9.153125000000D+01 4.545189113969D-09 4.397533472520D-01
    4.701316356659D-06 5.351996864192D-03 6.578862667084D-06 5.153685632706D+03
    1.439840000000D+05-3.725290298462D-09 1.900840539193D+00-6.332993507385D-08
    9.745995207820D-01 2.605312500000D+02 2.063816437736D+00-8.268201234785D-09
    2.035799029354D-10 1.000000000000D+00 1.833000000000D+03 0.000000000000D+00
    2.000000000000D+00 0.000000000000D+00-1.164153218269D-08 1.300000000000D+01
    1.439840000000D+05 0.000000000000D+00
28 15 02 23 16 00  0.0 4.215366207063D-04 2.614797267597D-12 0.000000000000D+00
    6.200000000000D+01-3.890625000000D+01 3.423356931265D-09-3.035394146156D+00
   -2.017244696617D-06 1.966708095279D-02 1.145899295807D-05 5.153698236465D+03
    1.440000000000D+05 2.384185791016D-07-2.329564623740D+00-2.421438694000D-08
    9.885166466804D-01 1.675937500000D+02-1.669450251167D+00-7.277803248940D-09
    0.000000000000D+00 1.000000000000D+00 1.833000000000D+03 0.000000000000D+00
    2.000000000000D+00 0.000000000000D+00-1.117587089539D-08 6.200000000000D+01
    1.440000000000D+05 0.000000000000D+00
30 15 02 23 16 00  0.0-8.346745744348D-05 1.705302565824D-12 0.000000000000D+00
    2.500000000000D+01-4.143750000000D+01 4.756626648117D-09-1.973222497094D-01
   -2.304092049599D-06 1.029405975714D-03 4.947185516357D-06 5.153768644333D+03
    1.440000000000D+05-1.676380634308D-08 2.913500297862D+00-4.284083843231D-08
    9.570434271231D-01 2.824687500000D+02 2.922132175769D+00-8.417850416720D-09
   -3.975165474568D-10 1.000000000000D+00 1.833000000000D+03 0.000000000000D+00
    2.000000000000D+00 0.000000000000D+00 3.259629011154D-09 2.500000000000D+01
    1.440000000000D+05 0.000000000000D+00
24 15 02 23 16 00  0.0-4.393421113491D-05-5.684341886081D-13 0.000000000000D+00
    7.300000000000D+01-2.040625000000D+01 4.995922342488D-09 5.195234803297D-01
   -1.031905412674D-06 3.089425270446D-03 3.622844815254D-06 5.153682489395D+03
    1.440000000000D+05 1.303851604462D-08 2.823627730903D+00 5.774199962616D-08
    9.545252316244D-01 3.016250000000D+02 2.964295367829D-01-8.602500933819D-09
   -3.292994210646D-10 1.000000000000D+00 1.833000000000D+03 0.000000000000D+00
    2.000000000000D+00 0.000000000000D+00 2.328306436539D-09 7.300000000000D+01
    1.440000000000D+05 0.000000000000D+00
17 15 02 23 16 00  0.0-1.574982888997D-04-2.046363078989D-12 0.000000000000D+00
    7.300000000000D+01 2.068750000000D+01 4.287321608842D-09 2.446443997012D+00
    1.063570380211D-06 1.008063647896D-02 7.472932338715D-06 5.153719648361D+03
    1.440000000000D+05 8.754432201385D-08-1.306813966299D+00-1.136213541031D-07
    9.712061316166D-01 2.389687500000D+02-2.029351442450D+00-7.898900200587D-09
    5.371652567199D-10 1.000000000000D+00 1.833000000000D+03 0.000000000000D+00
    2.000000000000D+00 0.000000000000D+00-1.071020960808D-08 7.300000000000D+01
    1.440000000000D+05 0.000000000000D+00
